{
  "type": "FeatureCollection",
  "features": [
    {
      "type": "Feature",
      "properties": {
        "norad_id": 39160,
        "name": "VNREDSAT 1",
        "group": "resource",
        "lat": 20.966809137457293,
        "lon": -145.02405548064894,
        "alt_km": 677.0971481313836,
        "timestamp": "2025-12-02T06:27:52.678028+00:00",
        "meta_object_name": "VNREDSAT 1",
        "meta_object_id": "2013-021B",
        "meta_epoch": "2025-12-01T19:54:23.907168",
        "meta_mean_motion": 14.64894957,
        "meta_eccentricity": 0.0001386,
        "meta_inclination": 97.9389,
        "meta_ra_of_asc_node": 31.4861,
        "meta_arg_of_pericenter": 84.1174,
        "meta_mean_anomaly": 276.0187,
        "meta_ephemeris_type": 0,
        "meta_classification_type": "U",
        "meta_norad_cat_id": 39160,
        "meta_element_set_no": 999,
        "meta_rev_at_epoch": 67139,
        "meta_bstar": 0.00015723,
        "meta_mean_motion_dot": 7.95e-06,
        "meta_mean_motion_ddot": 0,
        "tle_line1": "1 39160U 13021B   25335.82944337  .00000795  00000+0  15723-3 0  9995",
        "tle_line2": "2 39160  97.9389  31.4861 0001386  84.1174 276.0187 14.64894957671396"
      },
      "geometry": {
        "type": "Point",
        "coordinates": [
          -145.02405548064894,
          20.966809137457293
        ]
      }
    },
    {
      "type": "Feature",
      "properties": {
        "norad_id": 39227,
        "name": "ARIRANG-5 (KOMPSAT-5)",
        "group": "resource",
        "lat": -7.089292594493127,
        "lon": -20.23094384548396,
        "alt_km": 557.6675532465752,
        "timestamp": "2025-12-02T06:27:52.678038+00:00",
        "meta_object_name": "ARIRANG-5 (KOMPSAT-5)",
        "meta_object_id": "2013-042A",
        "meta_epoch": "2025-12-02T02:26:38.031648",
        "meta_mean_motion": 15.04495609,
        "meta_eccentricity": 0.0004378,
        "meta_inclination": 97.6164,
        "meta_ra_of_asc_node": 160.5575,
        "meta_arg_of_pericenter": 84.6851,
        "meta_mean_anomaly": 275.4875,
        "meta_ephemeris_type": 0,
        "meta_classification_type": "U",
        "meta_norad_cat_id": 39227,
        "meta_element_set_no": 999,
        "meta_rev_at_epoch": 67422,
        "meta_bstar": 0.00015045,
        "meta_mean_motion_dot": 2.045e-05,
        "meta_mean_motion_ddot": 0,
        "tle_line1": "1 39227U 13042A   25336.10182907  .00002045  00000+0  15045-3 0  9998",
        "tle_line2": "2 39227  97.6164 160.5575 0004378  84.6851 275.4875 15.04495609674223"
      },
      "geometry": {
        "type": "Point",
        "coordinates": [
          -20.23094384548396,
          -7.089292594493127
        ]
      }
    },
    {
      "type": "Feature",
      "properties": {
        "norad_id": 39418,
        "name": "SKYSAT-A",
        "group": "resource",
        "lat": -63.58148571248732,
        "lon": 41.989747026250306,
        "alt_km": 525.6022181163225,
        "timestamp": "2025-12-02T06:27:52.678048+00:00",
        "meta_object_name": "SKYSAT-A",
        "meta_object_id": "2013-066C",
        "meta_epoch": "2025-12-01T14:51:38.287296",
        "meta_mean_motion": 15.11472349,
        "meta_eccentricity": 0.00205154,
        "meta_inclination": 97.4132,
        "meta_ra_of_asc_node": 26.1659,
        "meta_arg_of_pericenter": 277.642,
        "meta_mean_anomaly": 82.248,
        "meta_ephemeris_type": 0,
        "meta_classification_type": "U",
        "meta_norad_cat_id": 39418,
        "meta_element_set_no": 999,
        "meta_rev_at_epoch": 65862,
        "meta_bstar": 0.00025449679,
        "meta_mean_motion_dot": 4.263e-05,
        "meta_mean_motion_ddot": 0,
        "tle_line1": "1 39418U 13066C   25335.61919314  .00004263  00000+0  25450-3 0  9996",
        "tle_line2": "2 39418  97.4132  26.1659 0020515 277.6420  82.2480 15.11472349658621"
      },
      "geometry": {
        "type": "Point",
        "coordinates": [
          41.989747026250306,
          -63.58148571248732
        ]
      }
    },
    {
      "type": "Feature",
      "properties": {
        "norad_id": 39419,
        "name": "DUBAISAT-2",
        "group": "resource",
        "lat": -20.25022147510724,
        "lon": 144.23684818957165,
        "alt_km": 554.5870838338114,
        "timestamp": "2025-12-02T06:27:52.678059+00:00",
        "meta_object_name": "DUBAISAT-2",
        "meta_object_id": "2013-066D",
        "meta_epoch": "2025-12-01T21:37:02.704800",
        "meta_mean_motion": 15.0819069,
        "meta_eccentricity": 0.0011683,
        "meta_inclination": 97.4446,
        "meta_ra_of_asc_node": 326.6447,
        "meta_arg_of_pericenter": 1.3785,
        "meta_mean_anomaly": 358.7474,
        "meta_ephemeris_type": 0,
        "meta_classification_type": "U",
        "meta_norad_cat_id": 39419,
        "meta_element_set_no": 999,
        "meta_rev_at_epoch": 65663,
        "meta_bstar": 0.00034614,
        "meta_mean_motion_dot": 5.3e-05,
        "meta_mean_motion_ddot": 0,
        "tle_line1": "1 39419U 13066D   25335.90072575  .00005300  00000+0  34614-3 0  9993",
        "tle_line2": "2 39419  97.4446 326.6447 0011683   1.3785 358.7474 15.08190690656630"
      },
      "geometry": {
        "type": "Point",
        "coordinates": [
          144.23684818957165,
          -20.25022147510724
        ]
      }
    },
    {
      "type": "Feature",
      "properties": {
        "norad_id": 39574,
        "name": "GPM-CORE",
        "group": "resource",
        "lat": -4.455033334531414,
        "lon": -114.31354327596591,
        "alt_km": 433.26281240146636,
        "timestamp": "2025-12-02T06:27:52.678070+00:00",
        "meta_object_name": "GPM-CORE",
        "meta_object_id": "2014-009C",
        "meta_epoch": "2025-12-01T19:36:43.333344",
        "meta_mean_motion": 15.4510628,
        "meta_eccentricity": 0.0010581,
        "meta_inclination": 64.9752,
        "meta_ra_of_asc_node": 249.2871,
        "meta_arg_of_pericenter": 268.4571,
        "meta_mean_anomaly": 91.5358,
        "meta_ephemeris_type": 0,
        "meta_classification_type": "U",
        "meta_norad_cat_id": 39574,
        "meta_element_set_no": 999,
        "meta_rev_at_epoch": 66732,
        "meta_bstar": 0.00034722,
        "meta_mean_motion_dot": 0.0001634,
        "meta_mean_motion_ddot": 0,
        "tle_line1": "1 39574U 14009C   25335.81716821  .00016340  00000+0  34722-3 0  9998",
        "tle_line2": "2 39574  64.9752 249.2871 0010581 268.4571  91.5358 15.45106280667321"
      },
      "geometry": {
        "type": "Point",
        "coordinates": [
          -114.31354327596591,
          -4.455033334531414
        ]
      }
    },
    {
      "type": "Feature",
      "properties": {
        "norad_id": 39634,
        "name": "SENTINEL-1A",
        "group": "resource",
        "lat": -53.67762061260828,
        "lon": 150.38154630748278,
        "alt_km": 703.4922081040559,
        "timestamp": "2025-12-02T06:27:52.678080+00:00",
        "meta_object_name": "SENTINEL-1A",
        "meta_object_id": "2014-016A",
        "meta_epoch": "2025-12-01T21:09:54.444096",
        "meta_mean_motion": 14.59200072,
        "meta_eccentricity": 0.0001259,
        "meta_inclination": 98.1805,
        "meta_ra_of_asc_node": 341.2835,
        "meta_arg_of_pericenter": 89.7207,
        "meta_mean_anomaly": 270.4137,
        "meta_ephemeris_type": 0,
        "meta_classification_type": "U",
        "meta_norad_cat_id": 39634,
        "meta_element_set_no": 999,
        "meta_rev_at_epoch": 62124,
        "meta_bstar": 5.7101e-05,
        "meta_mean_motion_dot": 2.23e-06,
        "meta_mean_motion_ddot": 0,
        "tle_line1": "1 39634U 14016A   25335.88188014  .00000223  00000+0  57101-4 0  9997",
        "tle_line2": "2 39634  98.1805 341.2835 0001259  89.7207 270.4137 14.59200072621243"
      },
      "geometry": {
        "type": "Point",
        "coordinates": [
          150.38154630748278,
          -53.67762061260828
        ]
      }
    },
    {
      "type": "Feature",
      "properties": {
        "norad_id": 39731,
        "name": "KAZEOSAT 1",
        "group": "resource",
        "lat": 45.24414323970767,
        "lon": -123.07606028520875,
        "alt_km": 747.2157102004276,
        "timestamp": "2025-12-02T06:27:52.678090+00:00",
        "meta_object_name": "KAZEOSAT 1",
        "meta_object_id": "2014-024A",
        "meta_epoch": "2025-12-01T19:51:12.905280",
        "meta_mean_motion": 14.4205184,
        "meta_eccentricity": 0.0001055,
        "meta_inclination": 98.3446,
        "meta_ra_of_asc_node": 47.9789,
        "meta_arg_of_pericenter": 98.2205,
        "meta_mean_anomaly": 261.9104,
        "meta_ephemeris_type": 0,
        "meta_classification_type": "U",
        "meta_norad_cat_id": 39731,
        "meta_element_set_no": 999,
        "meta_rev_at_epoch": 61011,
        "meta_bstar": 9.1904e-05,
        "meta_mean_motion_dot": 2.59e-06,
        "meta_mean_motion_ddot": 0,
        "tle_line1": "1 39731U 14024A   25335.82723270  .00000259  00000+0  91904-4 0  9995",
        "tle_line2": "2 39731  98.3446  47.9789 0001055  98.2205 261.9104 14.42051840610111"
      },
      "geometry": {
        "type": "Point",
        "coordinates": [
          -123.07606028520875,
          45.24414323970767
        ]
      }
    }
  ]
}